[{"OBJECT_NAME":"STARLINK-4200","OBJECT_ID":"2022-062AY","EPOCH":"2025-10-01T06:04:36.677856","MEAN_MOTION":15.08834951,"ECCENTRICITY":0.00020002,"INCLINATION":53.2172,"RA_OF_ASC_NODE":9.8609,"ARG_OF_PERICENTER":87.685,"MEAN_ANOMALY":272.4371,"EPHEMERIS_TYPE":0,"CLASSIFICATION_TYPE":"U","NORAD_CAT_ID":52876,"ELEMENT_SET_NO":999,"REV_AT_EPOCH":18199,"BSTAR":-0.00040595435,"MEAN_MOTION_DOT":-6.742e-5,"MEAN_MOTION_DDOT":0},{"OBJECT_NAME":"STARLINK-4214","OBJECT_ID":"2022-062AZ","EPOCH":"2025-09-30T11:47:40.905024","MEAN_MOTION":15.08847457,"ECCENTRICITY":0.00015406,"INCLINATION":53.2194,"RA_OF_ASC_NODE":13.2861,"ARG_OF_PERICENTER":99.6546,"MEAN_ANOMALY":260.462,"EPHEMERIS_TYPE":0,"CLASSIFICATION_TYPE":"U","NORAD_CAT_ID":52877,"ELEMENT_SET_NO":999,"REV_AT_EPOCH":18188,"BSTAR":0.0001238829,"MEAN_MOTION_DOT":1.685e-5,"MEAN_MOTION_DDOT":0},{"OBJECT_NAME":"STARLINK-4171","OBJECT_ID":"2022-062BA","EPOCH":"2025-09-30T23:27:10.884384","MEAN_MOTION":15.08846175,"ECCENTRICITY":0.0001317,"INCLINATION":53.2192,"RA_OF_ASC_NODE":11.0977,"ARG_OF_PERICENTER":109.8727,"MEAN_ANOMALY":250.2408,"EPHEMERIS_TYPE":0,"CLASSIFICATION_TYPE":"U","NORAD_CAT_ID":52878,"ELEMENT_SET_NO":999,"REV_AT_EPOCH":18195,"BSTAR":0.00017903711,"MEAN_MOTION_DOT":2.563e-5,"MEAN_MOTION_DDOT":0},{"OBJECT_NAME":"STARLINK-4139","OBJECT_ID":"2022-062BB","EPOCH":"2025-10-01T00:14:52.722816","MEAN_MOTION":15.08837086,"ECCENTRICITY":0.00018577,"INCLINATION":53.2188,"RA_OF_ASC_NODE":10.9503,"ARG_OF_PERICENTER":93.0019,"MEAN_ANOMALY":267.1186,"EPHEMERIS_TYPE":0,"CLASSIFICATION_TYPE":"U","NORAD_CAT_ID":52879,"ELEMENT_SET_NO":999,"REV_AT_EPOCH":18196,"BSTAR":4.435216e-6,"MEAN_MOTION_DOT":-2.18e-6,"MEAN_MOTION_DDOT":0},{"OBJECT_NAME":"STARLINK-4186","OBJECT_ID":"2022-062BC","EPOCH":"2025-10-01T06:41:43.015776","MEAN_MOTION":15.08840836,"ECCENTRICITY":0.00017685,"INCLINATION":53.2187,"RA_OF_ASC_NODE":9.7432,"ARG_OF_PERICENTER":88.7425,"MEAN_ANOMALY":271.377,"EPHEMERIS_TYPE":0,"CLASSIFICATION_TYPE":"U","NORAD_CAT_ID":52880,"ELEMENT_SET_NO":999,"REV_AT_EPOCH":18200,"BSTAR":1.1701147e-5,"MEAN_MOTION_DOT":-1.02e-6,"MEAN_MOTION_DDOT":0},{"OBJECT_NAME":"STARLINK-4181","OBJECT_ID":"2022-062BE","EPOCH":"2025-09-30T23:11:11.531616","MEAN_MOTION":15.08848712,"ECCENTRICITY":0.00013381,"INCLINATION":53.2193,"RA_OF_ASC_NODE":10.7221,"ARG_OF_PERICENTER":92.6218,"MEAN_ANOMALY":267.4927,"EPHEMERIS_TYPE":0,"CLASSIFICATION_TYPE":"U","NORAD_CAT_ID":52882,"ELEMENT_SET_NO":999,"REV_AT_EPOCH":18196,"BSTAR":9.4808171e-5,"MEAN_MOTION_DOT":1.222e-5,"MEAN_MOTION_DDOT":0},{"OBJECT_NAME":"STARLINK-4260","OBJECT_ID":"2022-076A","EPOCH":"2025-09-30T20:58:48.432288","MEAN_MOTION":15.08843008,"ECCENTRICITY":0.00013062,"INCLINATION":53.2167,"RA_OF_ASC_NODE":91.5596,"ARG_OF_PERICENTER":88.8007,"MEAN_ANOMALY":271.3135,"EPHEMERIS_TYPE":0,"CLASSIFICATION_TYPE":"U","NORAD_CAT_ID":52986,"ELEMENT_SET_NO":999,"REV_AT_EPOCH":17871,"BSTAR":8.9434796e-5,"MEAN_MOTION_DOT":1.136e-5,"MEAN_MOTION_DDOT":0},{"OBJECT_NAME":"STARLINK-4259","OBJECT_ID":"2022-076B","EPOCH":"2025-10-01T05:52:42.272544","MEAN_MOTION":15.08832562,"ECCENTRICITY":0.00013752,"INCLINATION":53.2158,"RA_OF_ASC_NODE":99.8966,"ARG_OF_PERICENTER":91.7833,"MEAN_ANOMALY":268.3317,"EPHEMERIS_TYPE":0,"CLASSIFICATION_TYPE":"U","NORAD_CAT_ID":52987,"ELEMENT_SET_NO":999,"REV_AT_EPOCH":17863,"BSTAR":-0.00012563785,"MEAN_MOTION_DOT":-2.286e-5,"MEAN_MOTION_DDOT":0},{"OBJECT_NAME":"STARLINK-4291","OBJECT_ID":"2022-076C","EPOCH":"2025-09-30T20:53:30.303168","MEAN_MOTION":15.08843265,"ECCENTRICITY":0.0001343,"INCLINATION":53.217,"RA_OF_ASC_NODE":91.5788,"ARG_OF_PERICENTER":91.3349,"MEAN_ANOMALY":268.7797,"EPHEMERIS_TYPE":0,"CLASSIFICATION_TYPE":"U","NORAD_CAT_ID":52988,"ELEMENT_SET_NO":999,"REV_AT_EPOCH":17871,"BSTAR":4.36701e-5,"MEAN_MOTION_DOT":4.07e-6,"MEAN_MOTION_DDOT":0},{"OBJECT_NAME":"STARLINK-4293","OBJECT_ID":"2022-076D","EPOCH":"2025-10-01T05:47:24.380160","MEAN_MOTION":15.08846458,"ECCENTRICITY":0.0001443,"INCLINATION":53.2166,"RA_OF_ASC_NODE":99.9127,"ARG_OF_PERICENTER":81.1038,"MEAN_ANOMALY":279.0118,"EPHEMERIS_TYPE":0,"CLASSIFICATION_TYPE":"U","NORAD_CAT_ID":52989,"ELEMENT_SET_NO":999,"REV_AT_EPOCH":17863,"BSTAR":2.4992064e-5,"MEAN_MOTION_DOT":1.1e-6,"MEAN_MOTION_DDOT":0},{"OBJECT_NAME":"STARLINK-4286","OBJECT_ID":"2022-076E","EPOCH":"2025-10-01T05:42:07.146144","MEAN_MOTION":15.08828226,"ECCENTRICITY":0.00015493,"INCLINATION":53.2173,"RA_OF_ASC_NODE":99.9304,"ARG_OF_PERICENTER":85.7251,"MEAN_ANOMALY":274.3918,"EPHEMERIS_TYPE":0,"CLASSIFICATION_TYPE":"U","NORAD_CAT_ID":52990,"ELEMENT_SET_NO":999,"REV_AT_EPOCH":17863,"BSTAR":0.0001199763,"MEAN_MOTION_DOT":1.621e-5,"MEAN_MOTION_DDOT":0},{"OBJECT_NAME":"STARLINK-4285","OBJECT_ID":"2022-076F","EPOCH":"2025-10-01T05:36:48.802752","MEAN_MOTION":15.08841215,"ECCENTRICITY":0.00015017,"INCLINATION":53.2169,"RA_OF_ASC_NODE":99.9463,"ARG_OF_PERICENTER":87.0844,"MEAN_ANOMALY":273.032,"EPHEMERIS_TYPE":0,"CLASSIFICATION_TYPE":"U","NORAD_CAT_ID":52991,"ELEMENT_SET_NO":999,"REV_AT_EPOCH":17863,"BSTAR":5.681452e-6,"MEAN_MOTION_DOT":-1.98e-6,"MEAN_MOTION_DDOT":0},{"OBJECT_NAME":"STARLINK-4269","OBJECT_ID":"2022-076G","EPOCH":"2025-10-01T05:32:53.683296","MEAN_MOTION":15.08835222,"ECCENTRICITY":0.00014753,"INCLINATION":53.2169,"RA_OF_ASC_NODE":99.9689,"ARG_OF_PERICENTER":96.6928,"MEAN_ANOMALY":263.4233,"EPHEMERIS_TYPE":0,"CLASSIFICATION_TYPE":"U","NORAD_CAT_ID":52992,"ELEMENT_SET_NO":999,"REV_AT_EPOCH":17863,"BSTAR":-6.2018724e-5,"MEAN_MOTION_DOT":-1.275e-5,"MEAN_MOTION_DDOT":0},{"OBJECT_NAME":"STARLINK-4264","OBJECT_ID":"2022-076H","EPOCH":"2025-09-30T22:23:35.631456","MEAN_MOTION":15.08837705,"ECCENTRICITY":0.00013195,"INCLINATION":53.216,"RA_OF_ASC_NODE":91.2946,"ARG_OF_PERICENTER":91.8495,"MEAN_ANOMALY":268.2648,"EPHEMERIS_TYPE":0,"CLASSIFICATION_TYPE":"U","NORAD_CAT_ID":52993,"ELEMENT_SET_NO":999,"REV_AT_EPOCH":17872,"BSTAR":5.5058473e-5,"MEAN_MOTION_DOT":5.88e-6,"MEAN_MOTION_DDOT":0},{"OBJECT_NAME":"STARLINK-4256","OBJECT_ID":"2022-076J","EPOCH":"2025-10-01T04:39:50.640768","MEAN_MOTION":15.08838517,"ECCENTRICITY":0.00013992,"INCLINATION":53.2171,"RA_OF_ASC_NODE":90.1228,"ARG_OF_PERICENTER":92.9868,"MEAN_ANOMALY":267.1284,"EPHEMERIS_TYPE":0,"CLASSIFICATION_TYPE":"U","NORAD_CAT_ID":52994,"ELEMENT_SET_NO":999,"REV_AT_EPOCH":17876,"BSTAR":7.1011182e-5,"MEAN_MOTION_DOT":8.42e-6,"MEAN_MOTION_DDOT":0},{"OBJECT_NAME":"STARLINK-4296","OBJECT_ID":"2022-076K","EPOCH":"2025-09-30T18:56:56.090976","MEAN_MOTION":15.08833086,"ECCENTRICITY":0.00013531,"INCLINATION":53.2166,"RA_OF_ASC_NODE":91.9397,"ARG_OF_PERICENTER":89.7333,"MEAN_ANOMALY":270.3814,"EPHEMERIS_TYPE":0,"CLASSIFICATION_TYPE":"U","NORAD_CAT_ID":52995,"ELEMENT_SET_NO":999,"REV_AT_EPOCH":17870,"BSTAR":-3.1453133e-5,"MEAN_MOTION_DOT":-7.88e-6,"MEAN_MOTION_DDOT":0},{"OBJECT_NAME":"STARLINK-4295","OBJECT_ID":"2022-076L","EPOCH":"2025-09-30T11:43:49.491264","MEAN_MOTION":15.08835589,"ECCENTRICITY":0.00013255,"INCLINATION":53.2163,"RA_OF_ASC_NODE":93.5729,"ARG_OF_PERICENTER":91.6209,"MEAN_ANOMALY":268.4935,"EPHEMERIS_TYPE":0,"CLASSIFICATION_TYPE":"U","NORAD_CAT_ID":52996,"ELEMENT_SET_NO":999,"REV_AT_EPOCH":17865,"BSTAR":6.871858e-5,"MEAN_MOTION_DOT":8.06e-6,"MEAN_MOTION_DDOT":0},{"OBJECT_NAME":"STARLINK-4254","OBJECT_ID":"2022-076N","EPOCH":"2025-09-30T18:41:01.340736","MEAN_MOTION":15.08829985,"ECCENTRICITY":0.00014261,"INCLINATION":53.216,"RA_OF_ASC_NODE":91.8986,"ARG_OF_PERICENTER":86.2854,"MEAN_ANOMALY":273.8301,"EPHEMERIS_TYPE":0,"CLASSIFICATION_TYPE":"U","NORAD_CAT_ID":52998,"ELEMENT_SET_NO":999,"REV_AT_EPOCH":17870,"BSTAR":7.9696741e-5,"MEAN_MOTION_DOT":9.8e-6,"MEAN_MOTION_DDOT":0},{"OBJECT_NAME":"STARLINK-4217","OBJECT_ID":"2022-076P","EPOCH":"2025-09-30T18:30:25.797888","MEAN_MOTION":15.08843385,"ECCENTRICITY":0.00013284,"INCLINATION":53.2163,"RA_OF_ASC_NODE":92.0223,"ARG_OF_PERICENTER":90.5532,"MEAN_ANOMALY":269.5612,"EPHEMERIS_TYPE":0,"CLASSIFICATION_TYPE":"U","NORAD_CAT_ID":52999,"ELEMENT_SET_NO":999,"REV_AT_EPOCH":17870,"BSTAR":2.3144419e-5,"MEAN_MOTION_DOT":8.0e-7,"MEAN_MOTION_DDOT":0},{"OBJECT_NAME":"STARLINK-4194","OBJECT_ID":"2022-076Q","EPOCH":"2025-09-30T20:27:01.321632","MEAN_MOTION":15.08843518,"ECCENTRICITY":0.00013289,"INCLINATION":53.2163,"RA_OF_ASC_NODE":91.6569,"ARG_OF_PERICENTER":85.1808,"MEAN_ANOMALY":274.9336,"EPHEMERIS_TYPE":0,"CLASSIFICATION_TYPE":"U","NORAD_CAT_ID":53000,"ELEMENT_SET_NO":999,"REV_AT_EPOCH":17871,"BSTAR":-4.4143054e-5,"MEAN_MOTION_DOT":-9.9e-6,"MEAN_MOTION_DDOT":0},{"OBJECT_NAME":"STARLINK-4190","OBJECT_ID":"2022-076R","EPOCH":"2025-10-01T05:32:50.028576","MEAN_MOTION":15.08836104,"ECCENTRICITY":0.00012374,"INCLINATION":53.2156,"RA_OF_ASC_NODE":89.9561,"ARG_OF_PERICENTER":104.4349,"MEAN_ANOMALY":255.6781,"EPHEMERIS_TYPE":0,"CLASSIFICATION_TYPE":"U","NORAD_CAT_ID":53001,"ELEMENT_SET_NO":999,"REV_AT_EPOCH":17877,"BSTAR":-3.2833483e-5,"MEAN_MOTION_DOT":-8.1e-6,"MEAN_MOTION_DDOT":0},{"OBJECT_NAME":"STARLINK-4121","OBJECT_ID":"2022-076S","EPOCH":"2025-09-30T18:46:19.985664","MEAN_MOTION":15.08837178,"ECCENTRICITY":0.00011692,"INCLINATION":53.2163,"RA_OF_ASC_NODE":91.9697,"ARG_OF_PERICENTER":94.3113,"MEAN_ANOMALY":265.8013,"EPHEMERIS_TYPE":0,"CLASSIFICATION_TYPE":"U","NORAD_CAT_ID":53002,"ELEMENT_SET_NO":999,"REV_AT_EPOCH":17870,"BSTAR":1.5123389e-5,"MEAN_MOTION_DOT":-4.7e-7,"MEAN_MOTION_DDOT":0},{"OBJECT_NAME":"STARLINK-4255","OBJECT_ID":"2022-076T","EPOCH":"2025-10-01T05:22:11.559360","MEAN_MOTION":15.08864007,"ECCENTRICITY":0.00019523,"INCLINATION":53.2157,"RA_OF_ASC_NODE":89.9914,"ARG_OF_PERICENTER":83.9962,"MEAN_ANOMALY":276.1253,"EPHEMERIS_TYPE":0,"CLASSIFICATION_TYPE":"U","NORAD_CAT_ID":53003,"ELEMENT_SET_NO":999,"REV_AT_EPOCH":17877,"BSTAR":0.00018863542,"MEAN_MOTION_DOT":2.717e-5,"MEAN_MOTION_DDOT":0}]
